ONEWEB-0156             
1 48052U 21025L   23224.14175852  .00000372  00000+0  98320-3 0  9991
2 48052  87.9088 167.1252 0002036  80.3942 279.7417 13.13469547117056
ONEWEB-0161             
1 48053U 21025M   23223.58100658 -.00000113  00000+0 -34531-3 0  9990
2 48053  87.9077 167.2018 0002280  79.6009 280.5377 13.13468861116919
ONEWEB-0158             
1 48054U 21025N   23224.07827622  .00000197  00000+0  50565-3 0  9998
2 48054  87.9093 167.1467 0001765  85.4091 274.7239 13.13471556117095
ONEWEB-0157             
1 48055U 21025P   23225.09186297 -.00000281  00000+0 -80318-3 0  9993
2 48055  87.9085 166.9050 0002235  76.2567 283.8811 13.13469045117177
ONEWEB-0162             
1 48056U 21025Q   23224.36817589  .00000403  00000+0  10676-2 0  9991
2 48056  87.9079 167.0475 0002226  74.9871 285.1505 13.13472688117023
ONEWEB-0155             
1 48057U 21025R   23224.77021396  .00000139  00000+0  34700-3 0  9991
2 48057  87.9084 166.9730 0002111  80.5385 279.5982 13.13471603117244
ONEWEB-0149             
1 48058U 21025S   23224.10578979 -.00000328  00000+0 -93283-3 0  9996
2 48058  87.9088 167.1032 0001993  68.0011 292.1330 13.13471355116961
ONEWEB-0148             
1 48059U 21025T   23225.13629017  .00000346  00000+0  91122-3 0  9999
2 48059  87.9087 166.9088 0002398  59.5172 300.6194 13.13472736117218
